NORAD_CAT_ID,OBJECT_NAME,OBJECT_TYPE,EPOCH,MEAN_MOTION,ECCENTRICITY,INCLINATION,RA_OF_ASC_NODE,ARG_OF_PERICENTER,MEAN_ANOMALY,BSTAR,MEAN_MOTION_DOT,MEAN_MOTION_DDOT,TLE_LINE0,TLE_LINE1,TLE_LINE2,SEMIMAJOR_AXIS,PERIOD,APOGEE,PERIGEE,DECAYED
55750.0,STARLINK-5573,PAYLOAD,2024-06-01 21:06:30,14.98327758,0.000277,70.0002,72.7908,272.1087,87.9755,-8.8256e-06,-1.98e-06,0.0,0 STARLINK-5573,1 55750U 23028K   24153.87951750 -.00000198  00000-0 -88256-5 0  9998,2 55750  70.0002  72.7908 0002770 272.1087  87.9755 14.98327758 69302,6950.2,96.107,573.99,570.14,0.0
55750.0,STARLINK-5573,PAYLOAD,2024-06-02 11:31:42,14.98350777,0.0002287,70.0019,71.2751,275.9208,84.169,-0.00050551,-6.122e-05,0.0,0 STARLINK-5573,1 55750U 23028K   24154.48035475 -.00006122  00000-0 -50551-3 0  9991,2 55750  70.0019  71.2751 0002287 275.9208  84.1690 14.98350777 69392,6950.129,96.106,573.583,570.404,0.0
55750.0,STARLINK-5573,PAYLOAD,2024-06-03 03:33:03,14.98327695,0.0002653,70.0005,69.5928,268.0323,92.0532,1.1747e-05,4.7e-07,0.0,0 STARLINK-5573,1 55750U 23028K   24155.14795833  .00000047  00000-0  11747-4 0  9999,2 55750  70.0005  69.5928 0002653 268.0323  92.0532 14.98327695 69498,6950.2,96.107,573.909,570.221,0.0
55750.0,STARLINK-5573,PAYLOAD,2024-06-03 11:33:43,14.98337746,0.0003154,70.0001,68.7493,273.6912,86.3887,-0.00010019,-1.289e-05,0.0,0 STARLINK-5573,1 55750U 23028K   24155.48175324 -.00001289  00000-0 -10019-3 0  9994,2 55750  70.0001  68.7493 0003154 273.6912  86.3887 14.98337746 69548,6950.169,96.107,574.226,569.842,0.0
55750.0,STARLINK-5573,PAYLOAD,2024-06-03 17:58:16,14.98326572,0.0002801,70.0004,68.0773,269.4159,90.6679,3.3686e-05,3.09e-06,0.0,0 STARLINK-5573,1 55750U 23028K   24155.74879898  .00000309  00000-0  33686-4 0  9996,2 55750  70.0004  68.0773 0002801 269.4159  90.6679 14.98326572 69585,6950.203,96.107,574.015,570.122,0.0
55750.0,STARLINK-5573,PAYLOAD,2024-06-04 03:35:04,14.98332815,0.0002599,70.0003,67.0676,261.1149,98.9716,9.7329e-05,1.069e-05,0.0,0 STARLINK-5573,1 55750U 23028K   24156.14935343  .00001069  00000-0  97329-4 0  9997,2 55750  70.0003  67.0676 0002599 261.1149  98.9716 14.98332815 69644,6950.184,96.107,573.856,570.243,0.0
55750.0,STARLINK-5573,PAYLOAD,2024-06-04 11:35:44,14.98334533,0.0002678,70.0008,66.2246,273.8576,86.2277,4.7735e-05,4.77e-06,0.0,0 STARLINK-5573,1 55750U 23028K   24156.48315394  .00000477  00000-0  47735-4 0  9990,2 55750  70.0008  66.2246 0002678 273.8576  86.2277 14.98334533 69691,6950.179,96.107,573.905,570.183,0.0
55750.0,STARLINK-5573,PAYLOAD,2024-06-05 03:37:04,14.98334301,0.0002895,70.0003,64.5422,272.5609,87.5219,0.00011812,1.317e-05,0.0,0 STARLINK-5573,1 55750U 23028K   24157.15075051  .00001317  00000-0  11812-3 0  9998,2 55750  70.0003  64.5422 0002895 272.5609  87.5219 14.98334301 69791,6950.18,96.107,574.057,570.033,0.0
55750.0,STARLINK-5573,PAYLOAD,2024-06-05 11:37:45,14.9832784,0.0003252,70.0008,63.699,266.675,93.4037,-1.3783e-05,-2.57e-06,0.0,0 STARLINK-5573,1 55750U 23028K   24157.48455646 -.00000257  00000-0 -13783-4 0  9990,2 55750  70.0008  63.6990 0003252 266.6750  93.4037 14.98327840 69845,6950.2,96.107,574.325,569.804,0.0
55750.0,STARLINK-5573,PAYLOAD,2024-06-06 03:39:06,14.98327005,0.0002644,70.0021,62.017,275.1791,84.9066,-1.6471e-05,-2.89e-06,0.0,0 STARLINK-5573,1 55750U 23028K   24158.15216049 -.00000289  00000-0 -16471-4 0  9999,2 55750  70.0021  62.0170 0002644 275.1791  84.9066 14.98327005 69948,6950.202,96.107,573.905,570.23,0.0
55750.0,STARLINK-5573,PAYLOAD,2024-06-07 16:30:11,14.98327766,0.0002837,70.0017,58.1463,268.0351,92.0483,6.9973e-05,7.42e-06,0.0,0 STARLINK-5573,1 55750U 23028K   24159.68763490  .00000742  00000-0  69973-4 0  9992,2 55750  70.0017  58.1463 0002837 268.0351  92.0483 14.98327766 70175,6950.2,96.107,574.037,570.093,0.0
55750.0,STARLINK-5573,PAYLOAD,2024-06-07 22:54:43,14.98325003,0.0003057,70.0009,57.4702,259.0424,101.0391,0.00015098,1.709e-05,0.0,0 STARLINK-5573,1 55750U 23028K   24159.95467150  .00001709  00000-0  15098-3 0  9998,2 55750  70.0009  57.4702 0003057 259.0424 101.0391 14.98325003 70216,6950.208,96.107,574.198,569.949,0.0
55750.0,STARLINK-5573,PAYLOAD,2024-06-08 02:06:59,14.98335695,0.000296,70.0007,57.1357,261.1709,98.9115,7.1236e-05,7.57e-06,0.0,0 STARLINK-5573,1 55750U 23028K   24160.08818929  .00000757  00000-0  71236-4 0  9997,2 55750  70.0007  57.1357 0002960 261.1709  98.9115 14.98335695 70237,6950.175,96.107,574.098,569.983,0.0
55750.0,STARLINK-5573,PAYLOAD,2024-06-08 10:07:40,14.98328996,0.0002633,70.0016,56.2928,274.6367,85.4492,7.6528e-05,8.2e-06,0.0,0 STARLINK-5573,1 55750U 23028K   24160.42199266  .00000820  00000-0  76528-4 0  9991,2 55750  70.0016  56.2928 0002633 274.6367  85.4492 14.98328996 70287,6950.196,96.107,573.891,570.231,0.0
55750.0,STARLINK-5573,PAYLOAD,2024-06-08 16:32:12,14.98330912,0.0002492,70.0041,55.62,276.5087,83.5788,7.182e-06,-7e-08,0.0,0 STARLINK-5573,1 55750U 23028K   24160.68903508 -.00000007  00000-0  71820-5 0  9990,2 55750  70.0041  55.6200 0002492 276.5087  83.5788 14.98330912 70327,6950.19,96.107,573.787,570.323,0.0
55750.0,STARLINK-5573,PAYLOAD,2024-06-08 22:56:45,14.98341379,0.0002079,70.0057,54.9491,270.5718,89.5203,-0.0001587,-1.986e-05,0.0,0 STARLINK-5573,1 55750U 23028K   24160.95607809 -.00001986  00000-0 -15870-3 0  9994,2 55750  70.0057  54.9491 0002079 270.5718  89.5203 14.98341379 70365,6950.158,96.106,573.468,570.578,0.0
55750.0,STARLINK-5573,PAYLOAD,2024-06-09 02:09:04,14.98258882,0.0003936,70.0052,54.609,246.5549,113.5196,-0.00041532,-5.036e-05,0.0,0 STARLINK-5573,1 55750U 23028K   24161.08963772 -.00005036  00000-0 -41532-3 0  9997,2 55750  70.0052  54.6090 0003936 246.5549 113.5196 14.98258882 70387,6950.413,96.112,575.014,569.542,0.0
55750.0,STARLINK-5573,PAYLOAD,2024-06-09 08:33:42,14.98177453,0.0002831,70.0049,53.9355,261.0326,99.0513,-0.0009203,-0.00011013,0.0,0 STARLINK-5573,1 55750U 23028K   24161.35674148 -.00011013  00000-0 -92030-3 0  9994,2 55750  70.0049  53.9355 0002831 261.0326  99.0513 14.98177453 70427,6950.665,96.117,574.497,570.562,0.0
55750.0,STARLINK-5573,PAYLOAD,2024-06-09 22:58:45,14.98315457,0.0002896,70.0049,52.4207,255.2672,104.8166,0.00066003,7.788e-05,0.0,0 STARLINK-5573,1 55750U 23028K   24161.95747114  .00007788  00000-0  66003-3 0  9997,2 55750  70.0049  52.4207 0002896 255.2672 104.8166 14.98315457 70514,6950.238,96.108,574.116,570.09,0.0
55750.0,STARLINK-5573,PAYLOAD,2024-06-10 02:11:02,14.98329018,0.0002808,70.0006,52.0883,267.4168,92.6669,2.2712e-05,1.78e-06,0.0,0 STARLINK-5573,1 55750U 23028K   24162.09099664  .00000178  00000-0  22712-4 0  9999,2 55750  70.0006  52.0883 0002808 267.4168  92.6669 14.98329018 70533,6950.196,96.107,574.013,570.109,0.0
55750.0,STARLINK-5573,PAYLOAD,2024-06-10 10:11:42,14.98335439,0.0003084,69.9998,51.2449,262.386,97.6949,-2.7549e-05,-4.22e-06,0.0,0 STARLINK-5573,1 55750U 23028K   24162.42479265 -.00000422  00000-0 -27549-4 0  9992,2 55750  69.9998  51.2449 0003084 262.3860  97.6949 14.98335439 70584,6950.176,96.107,574.185,569.898,0.0
55750.0,STARLINK-5573,PAYLOAD,2024-06-10 23:00:46,14.98330358,0.0002932,69.9999,49.8974,266.9307,93.1516,9.3942e-05,1.028e-05,0.0,0 STARLINK-5573,1 55750U 23028K   24162.95887399  .00001028  00000-0  93942-4 0  9992,2 55750  69.9999  49.8974 0002932 266.9307  93.1516 14.98330358 70663,6950.192,96.107,574.095,570.019,0.0
55750.0,STARLINK-5573,PAYLOAD,2024-06-11 02:13:02,14.98333405,0.0002976,69.9998,49.5616,268.0636,92.0182,0.00012898,1.446e-05,0.0,0 STARLINK-5573,1 55750U 23028K   24163.09239136  .00001446  00000-0  12898-3 0  9992,2 55750  69.9998  49.5616 0002976 268.0636  92.0182 14.98333405 70683,6950.182,96.107,574.116,569.979,0.0
55750.0,STARLINK-5573,PAYLOAD,2024-06-11 10:13:42,14.98334772,0.0002888,70.0002,48.719,272.6788,87.4041,7.4607e-05,7.97e-06,0.0,0 STARLINK-5573,1 55750U 23028K   24163.42619150  .00000797  00000-0  74607-4 0  9992,2 55750  70.0002  48.7190 0002888 272.6788  87.4041 14.98334772 70737,6950.178,96.107,574.05,570.036,0.0
55750.0,STARLINK-5573,PAYLOAD,2024-06-12 02:15:03,14.98329904,0.0002946,69.9998,47.0366,269.9059,90.1763,0.00027268,3.162e-05,0.0,0 STARLINK-5573,1 55750U 23028K   24164.09378709  .00003162  00000-0  27268-3 0  9997,2 55750  69.9998  47.0366 0002946 269.9059  90.1763 14.98329904 70834,6950.193,96.107,574.106,570.011,0.0
55750.0,STARLINK-5573,PAYLOAD,2024-06-12 19:52:32,14.9832601,0.0002792,70.0003,45.1846,271.2158,88.8681,-5.5862e-05,-7.59e-06,0.0,0 STARLINK-5573,1 55750U 23028K   24164.82815799 -.00000759  00000-0 -55862-4 0  9996,2 55750  70.0003  45.1846 0002792 271.2158  88.8681 14.98326010 70941,6950.205,96.107,574.011,570.13,0.0
55750.0,STARLINK-5573,PAYLOAD,2024-06-12 21:28:40,14.98326103,0.0002793,70.0003,45.0163,271.1828,88.9011,-5.4421e-05,-7.42e-06,0.0,0 STARLINK-5573,1 55750U 23028K   24164.89491797 -.00000742  00000-0 -54421-4 0  9993,2 55750  70.0003  45.0163 0002793 271.1828  88.9011 14.98326103 70958,6950.205,96.107,574.011,570.129,0.0
55750.0,STARLINK-5573,PAYLOAD,2024-06-13 08:41:36,14.98340491,0.0002844,70.0004,43.8382,269.6754,90.4079,-0.00019028,-2.363e-05,0.0,0 STARLINK-5573,1 55750U 23028K   24165.36223161 -.00002363  00000-0 -19028-3 0  9998,2 55750  70.0004  43.8382 0002844 269.6754  90.4079 14.98340491 71022,6950.16,96.106,574.002,570.049,0.0
55750.0,STARLINK-5573,PAYLOAD,2024-06-13 21:30:41,14.98333229,0.0002998,70.0,42.4917,270.1659,89.9157,7.9388e-06,2e-08,0.0,0 STARLINK-5573,1 55750U 23028K   24165.89631036  .00000002  00000-0  79388-5 0  9993,2 55750  70.0000  42.4917 0002998 270.1659  89.9157 14.98333229 71108,6950.183,96.107,574.132,569.964,0.0
55750.0,STARLINK-5573,PAYLOAD,2024-06-14 15:08:10,14.98326241,0.0002879,70.0003,40.6403,267.0885,92.9944,5.0434e-05,5.09e-06,0.0,0 STARLINK-5573,1 55750U 23028K   24166.63067252  .00000509  00000-0  50434-4 0  9991,2 55750  70.0003  40.6403 0002879 267.0885  92.9944 14.98326241 71211,6950.205,96.107,574.07,570.069,0.0
